H1 CPF 01  gfz 2021 03 05 13  5642 terrasarx 
H2 0702601  6201 31698    2021 03 05 12 59 42 2021 03 10 00 00 42   120 1 1  0 0 0
H9
10 0 59280  56142.000000  0   -4490808.360  -3878129.223   3490977.282
10 0 59280  56262.000000  0   -4922426.474  -3996684.381   2684952.929
10 0 59280  56382.000000  0   -5269379.006  -4038542.116   1831645.587
10 0 59280  56502.000000  0   -5524265.213  -4004517.797    946081.767
10 0 59280  56622.000000  0   -5681338.403  -3896881.229     43858.903
10 0 59280  56742.000000  0   -5736634.295  -3719286.882   -859137.490
10 0 59280  56862.000000  0   -5688063.855  -3476675.777  -1747023.349
10 0 59280  56982.000000  0   -5535466.424  -3175150.407  -2604204.789
10 0 59280  57102.000000  0   -5280623.771  -2821827.991  -3415657.544
10 0 59280  57222.000000  0   -4927235.656  -2424675.843  -4167193.049
10 0 59280  57342.000000  0   -4480858.214  -1992333.084  -4845705.568
10 0 59280  57462.000000  0   -3948806.843  -1533923.713  -5439396.524
10 0 59280  57582.000000  0   -3340026.580  -1058864.589  -5937972.125
10 0 59280  57702.000000  0   -2664933.756   -576673.190  -6332811.266
10 0 59280  57822.000000  0   -1935232.601    -96779.448  -6617103.217
10 0 59280  57942.000000  0   -1163709.722    371654.647  -6785953.283
10 0 59280  58062.000000  0    -364012.490    819904.704  -6836457.134
10 0 59280  58182.000000  0     449587.102   1239842.350  -6767745.071
10 0 59280  58302.000000  0    1262439.798   1624077.908  -6580996.341
10 0 59280  58422.000000  0    2059777.629   1966088.370  -6279422.978
10 0 59280  58542.000000  0    2826977.175   2260327.213  -5868220.224
10 0 59280  58662.000000  0    3549824.368   2502314.241  -5354485.209
10 0 59280  58782.000000  0    4214775.928   2688704.537  -4747105.998
10 0 59280  58902.000000  0    4809216.381   2817336.065  -4056619.636
10 0 59280  59022.000000  0    5321703.142   2887253.483  -3295038.437
10 0 59280  59142.000000  0    5742193.676   2898707.936  -2475648.780
10 0 59280  59262.000000  0    6062252.824   2853133.252  -1612784.083
10 0 59280  59382.000000  0    6275231.114   2753096.237   -721573.179
10 0 59280  59502.000000  0    6376410.689   2602223.654    182328.190
10 0 59280  59622.000000  0    6363113.339   2405105.670   1083019.744
10 0 59280  59742.000000  0    6234768.169   2167179.731   1964642.844
10 0 59280  59862.000000  0    5992938.950   1894598.399   2811668.982
10 0 59280  59982.000000  0    5641306.447   1594081.758   3609182.117
10 0 59280  60102.000000  0    5185608.042   1272760.262   4343148.237
10 0 59280  60222.000000  0    4633535.453    938011.388   5000665.154
10 0 59280  60342.000000  0    3994596.917    597295.216   5570189.438
10 0 59280  60462.000000  0    3279943.455    257991.041   6041737.813
10 0 59280  60582.000000  0    2502164.846    -72759.078   6407055.957
10 0 59280  60702.000000  0    1675062.937   -388197.042   6659756.487
10 0 59280  60822.000000  0     813403.415   -682084.467   6795426.024
10 0 59280  60942.000000  0     -67350.699   -948824.808   6811697.620
10 0 59280  61062.000000  0    -951316.649  -1183568.988   6708288.393
10 0 59280  61182.000000  0   -1822477.411  -1382303.684   6487003.267
10 0 59280  61302.000000  0   -2664970.036  -1541919.554   6151704.435
10 0 59280  61422.000000  0   -3463373.099  -1660259.148   5708249.968
10 0 59280  61542.000000  0   -4202992.923  -1736145.493   5164399.260
10 0 59280  61662.000000  0   -4870139.654  -1769389.890   4529682.643
10 0 59280  61782.000000  0   -5452388.021  -1760777.583   3815238.532
10 0 59280  61902.000000  0   -5938816.339  -1712031.366   3033620.426
10 0 59280  62022.000000  0   -6320219.927  -1625754.831   2198578.232
10 0 59280  62142.000000  0   -6589296.171  -1505356.928   1324815.152
10 0 59280  62262.000000  0   -6740792.462  -1354958.054    427721.838
10 0 59280  62382.000000  0   -6771612.751  -1179279.991   -476902.577
10 0 59280  62502.000000  0   -6680880.928   -983523.016  -1373137.954
10 0 59280  62622.000000  0   -6469958.901   -773233.387  -2245232.000
10 0 59280  62742.000000  0   -6142420.334   -554165.307  -3077883.588
10 0 59280  62862.000000  0   -5703980.790   -332140.689  -3856516.628
10 0 59280  62982.000000  0   -5162385.207   -112908.523  -4567536.619
10 0 59280  63102.000000  0   -4527257.914     97990.988  -5198564.800
10 0 59280  63222.000000  0   -3809919.729    295354.299  -5738647.583
10 0 59280  63342.000000  0   -3023175.263    474431.515  -6178436.925
10 0 59280  63462.000000  0   -2181077.943    631030.620  -6510339.498
10 0 59280  63582.000000  0   -1298677.340    761606.860  -6728636.762
10 0 59280  63702.000000  0    -391751.276    863336.630  -6829573.160
10 0 59280  63822.000000  0     523470.572    934174.360  -6811412.154
10 0 59280  63942.000000  0    1430588.702    972891.143  -6674464.431
10 0 59280  64062.000000  0    2313322.014    979095.781  -6421084.955
10 0 59280  64182.000000  0    3155794.506    953237.483  -6055636.563
10 0 59280  64302.000000  0    3942816.849    896589.944  -5584421.571
10 0 59280  64422.000000  0    4660158.448    811216.614  -5015583.833
10 0 59280  64542.000000  0    5294808.048    699918.426  -4358979.877
10 0 59280  64662.000000  0    5835216.842    566164.447  -3626018.356
10 0 59280  64782.000000  0    6271517.932    414006.091  -2829470.476
10 0 59280  64902.000000  0    6595718.644    247977.257  -1983253.985
10 0 59280  65022.000000  0    6801860.738     72981.644  -1102191.512
10 0 59280  65142.000000  0    6886140.983   -105829.625   -201748.235
10 0 59280  65262.000000  0    6846990.596   -283186.876    702244.170
10 0 59280  65382.000000  0    6685111.146   -453835.166   1593873.506
10 0 59280  65502.000000  0    6403464.539   -612667.580   2457436.097
10 0 59280  65622.000000  0    6007216.429   -754855.417   3277723.142
10 0 59280  65742.000000  0    5503634.457   -875971.439   4040295.007
10 0 59280  65862.000000  0    4901947.800   -972103.542   4731739.786
10 0 59280  65982.000000  0    4213167.533  -1039956.556   5339911.453
10 0 59280  66102.000000  0    3449874.680  -1076937.595   5854141.481
10 0 59280  66222.000000  0    2625981.633  -1081225.336   6265422.066
10 0 59280  66342.000000  0    1756472.002  -1051821.564   6566558.106
10 0 59280  66462.000000  0     857123.811   -988584.108   6752288.164
10 0 59280  66582.000000  0     -55780.201   -892239.689   6819370.635
10 0 59280  66702.000000  0    -965747.594   -764377.198   6766635.376
10 0 59280  66822.000000  0   -1856372.732   -607421.698   6595002.211
10 0 59280  66942.000000  0   -2711630.923   -424588.801   6307465.763
10 0 59280  67062.000000  0   -3516166.124   -219820.565   5909047.622
10 0 59280  67182.000000  0   -4255569.162      2296.182   5406714.956
10 0 59280  67302.000000  0   -4916641.204    236627.805   4809264.865
10 0 59280  67422.000000  0   -5487636.751    477605.922   4127175.639
10 0 59280  67542.000000  0   -5958481.147    719352.253   3372426.473
10 0 59280  67662.000000  0   -6320957.615    955813.307   2558289.331
10 0 59280  67782.000000  0   -6568860.613   1180902.026   1699094.630
10 0 59280  67902.000000  0   -6698110.708   1388642.484    809975.188
10 0 59280  68022.000000  0   -6706827.889   1573314.727    -93407.607
10 0 59280  68142.000000  0   -6595359.287   1729595.561   -995148.915
10 0 59280  68262.000000  0   -6366261.640   1852691.058  -1879389.106
10 0 59280  68382.000000  0   -6024240.609   1938458.722  -2730600.338
10 0 59280  68502.000000  0   -5576046.692   1983515.923  -3533866.406
10 0 59280  68622.000000  0   -5030330.553   1985330.625  -4275147.345
10 0 59280  68742.000000  0   -4397463.826   1942293.236  -4941523.153
10 0 59280  68862.000000  0   -3689330.493   1853768.384  -5521413.176
10 0 59280  68982.000000  0   -2919095.167   1720126.109  -6004768.014
10 0 59280  69102.000000  0   -2100953.288   1542751.830  -6383233.644
10 0 59280  69222.000000  0   -1249866.076   1324035.290  -6650284.621
10 0 59280  69342.000000  0    -381288.234   1067338.627  -6801324.430
10 0 59280  69462.000000  0     489107.276    776944.917  -6833755.229
10 0 59280  69582.000000  0    1345704.158    457988.317  -6747019.035
10 0 59280  69702.000000  0    2173217.817    116365.051  -6542607.475
10 0 59280  69822.000000  0    2956961.901   -241372.526  -6224038.250
10 0 59280  69942.000000  0    3683105.506   -608137.344  -5796801.197
10 0 59280  70062.000000  0    4338914.953   -976443.180  -5268272.173
10 0 59280  70182.000000  0    4912979.415  -1338552.527  -4647598.243
10 0 59280  70302.000000  0    5395416.161  -1686635.025  -3945550.588
10 0 59280  70422.000000  0    5778049.777  -2012932.236  -3174347.221
10 0 59280  70542.000000  0    6054561.827  -2309926.122  -2347447.257
10 0 59280  70662.000000  0    6220606.455  -2570507.454  -1479319.152
10 0 59280  70782.000000  0    6273888.482  -2788139.558   -585187.427
10 0 59280  70902.000000  0    6214202.126  -2957013.693    319237.903
10 0 59280  71022.000000  0    6043428.190  -3072191.736   1218043.693
10 0 59280  71142.000000  0    5765489.715  -3129732.404   2095402.963
10 0 59280  71262.000000  0    5386263.938  -3126797.180   2935862.948
10 0 59280  71382.000000  0    4913456.221  -3061733.417   3724625.124
10 0 59280  71502.000000  0    4356437.944  -2934131.374   4447810.893
10 0 59280  71622.000000  0    3726055.324  -2744856.664   5092708.597
10 0 59280  71742.000000  0    3034409.649  -2496056.085   5647998.274
10 0 59280  71862.000000  0    2294617.123  -2191135.585   6103946.846
10 0 59280  71982.000000  0    1520554.562  -1834713.183   6452573.710
10 0 59280  72102.000000  0     726595.109  -1432547.510   6687784.577
10 0 59280  72222.000000  0     -72660.993   -991442.952   6805471.854
10 0 59280  72342.000000  0    -862654.905   -519133.191   6803581.241
10 0 59280  72462.000000  0   -1629133.109    -24145.647   6682144.821
10 0 59280  72582.000000  0   -2358403.409    484352.081   6443280.644
99
